start=new Date('2022-09-13T00:00:00.000Z').valueOf();
sats=[{"EPOCH":"2022-09-12T22:00:00.999936","RA_OF_ASC_NODE":"227.0369","ARG_OF_PERICENTER":"62.7682","MEAN_ANOMALY":"261.6228","MEAN_MOTION_DOT":"0.00008774","PERIOD":"95.541","GP_ID":"212433642","MEAN_ELEMENT_THEORY":"SGP4","INCLINATION":"53.2151","MEAN_MOTION_DDOT":"0.0000000000000","TIME_SYSTEM":"UTC","OBJECT_NAME":"STARLINK-3996","COUNTRY_CODE":"US","CLASSIFICATION_TYPE":"U","MEAN_MOTION":"15.07212918","ECCENTRICITY":"0.00015080","SEMIMAJOR_AXIS":"6922.858","REV_AT_EPOCH":"130","CENTER_NAME":"EARTH","PERIAPSIS":"543.679","SITE":"AFETR","ELEMENT_SET_NO":"999","OBJECT_ID":"2022-052V","EPHEMERIS_TYPE":"0","TLE_LINE2":"2 52617  53.2151 227.0369 0001508  62.7682 261.6228 15.07212918  1301","DECAY_DATE":null,"REF_FRAME":"TEME","NORAD_CAT_ID":"52617","FILE":"3570509","TLE_LINE1":"1 52617U 22052V   22255.91667824  .00008774  00000-0  59416-3 0  9995","RCS_SIZE":"LARGE","OBJECT_TYPE":"PAYLOAD","LAUNCH_DATE":"2022-05-14","BSTAR":"0.00059416000000","APOAPSIS":"545.767"},{"ARG_OF_PERICENTER":"67.8363","MEAN_ANOMALY":"99.6086","MEAN_MOTION_DOT":"0.00029421","PERIOD":"95.439","EPOCH":"2022-09-12T22:00:00.999936","RA_OF_ASC_NODE":"227.3135","OBJECT_NAME":"STARLINK-3983","COUNTRY_CODE":"US","CLASSIFICATION_TYPE":"U","MEAN_MOTION":"15.08824583","ECCENTRICITY":"0.00014050","GP_ID":"212434500","INCLINATION":"53.2169","MEAN_ELEMENT_THEORY":"SGP4","MEAN_MOTION_DDOT":"0.0000000000000","TIME_SYSTEM":"UTC","OBJECT_ID":"2022-052W","EPHEMERIS_TYPE":"0","TLE_LINE2":"2 52618  53.2169 227.3135 0001405  67.8363  99.6086 15.08824583  1302","REF_FRAME":"TEME","DECAY_DATE":null,"SEMIMAJOR_AXIS":"6917.928","CENTER_NAME":"EARTH","REV_AT_EPOCH":"130","PERIAPSIS":"538.821","SITE":"AFETR","ELEMENT_SET_NO":"999","LAUNCH_DATE":"2022-05-14","OBJECT_TYPE":"PAYLOAD","BSTAR":"0.00185970000000","APOAPSIS":"540.764","NORAD_CAT_ID":"52618","FILE":"3570509","TLE_LINE1":"1 52618U 22052W   22255.91667824  .00029421  00000-0  18597-2 0  9992","RCS_SIZE":"LARGE"},{"OBJECT_ID":"2022-052X","EPHEMERIS_TYPE":"0","TLE_LINE2":"2 52619  53.2167 226.1907 0001701  47.8109  73.1263 15.08845499 19100","REF_FRAME":"TEME","DECAY_DATE":null,"SEMIMAJOR_AXIS":"6917.864","REV_AT_EPOCH":"1910","CENTER_NAME":"EARTH","PERIAPSIS":"538.552","SITE":"AFETR","ELEMENT_SET_NO":"999","LAUNCH_DATE":"2022-05-14","OBJECT_TYPE":"PAYLOAD","BSTAR":"-0.00083751000000","APOAPSIS":"540.905","NORAD_CAT_ID":"52619","FILE":"3570563","TLE_LINE1":"1 52619U 22052X   22256.16667824 -.00013594  00000-0 -83751-3 0  9992","RCS_SIZE":"LARGE","ARG_OF_PERICENTER":"47.8109","MEAN_ANOMALY":"73.1263","MEAN_MOTION_DOT":"-0.00013594","PERIOD":"95.437","EPOCH":"2022-09-13T04:00:00.999936","RA_OF_ASC_NODE":"226.1907","OBJECT_NAME":"STARLINK-3741","COUNTRY_CODE":"US","CLASSIFICATION_TYPE":"U","MEAN_MOTION":"15.08845499","ECCENTRICITY":"0.00017010","GP_ID":"212435273","MEAN_ELEMENT_THEORY":"SGP4","INCLINATION":"53.2167","MEAN_MOTION_DDOT":"0.0000000000000","TIME_SYSTEM":"UTC"},{"RCS_SIZE":"LARGE","TLE_LINE1":"1 52620U 22052Y   22256.16667824 -.00051631  00000-0 -32467-2 0  9995","FILE":"3570572","NORAD_CAT_ID":"52620","APOAPSIS":"540.863","BSTAR":"-0.00324670000000","LAUNCH_DATE":"2022-05-14","OBJECT_TYPE":"PAYLOAD","ELEMENT_SET_NO":"999","SITE":"AFETR","PERIAPSIS":"538.446","REV_AT_EPOCH":"1889","CENTER_NAME":"EARTH","SEMIMAJOR_AXIS":"6917.790","DECAY_DATE":null,"REF_FRAME":"TEME","TLE_LINE2":"2 52620  53.2148 241.1840 0001747  54.9562  88.6670 15.08869595 18897","EPHEMERIS_TYPE":"0","OBJECT_ID":"2022-052Y","TIME_SYSTEM":"UTC","MEAN_MOTION_DDOT":"0.0000000000000","MEAN_ELEMENT_THEORY":"SGP4","INCLINATION":"53.2148","GP_ID":"212435308","ECCENTRICITY":"0.00017470","MEAN_MOTION":"15.08869595","CLASSIFICATION_TYPE":"U","COUNTRY_CODE":"US","OBJECT_NAME":"STARLINK-3975","RA_OF_ASC_NODE":"241.1840","EPOCH":"2022-09-13T04:00:00.999936","PERIOD":"95.436","MEAN_MOTION_DOT":"-0.00051631","MEAN_ANOMALY":"88.6670","ARG_OF_PERICENTER":"54.9562"},{"MEAN_MOTION_DDOT":"0.0000000000000","TIME_SYSTEM":"UTC","GP_ID":"212435310","MEAN_ELEMENT_THEORY":"SGP4","INCLINATION":"53.2166","CLASSIFICATION_TYPE":"U","MEAN_MOTION":"15.08866416","ECCENTRICITY":"0.00019410","OBJECT_NAME":"STARLINK-3984","COUNTRY_CODE":"US","EPOCH":"2022-09-13T04:00:00.999936","RA_OF_ASC_NODE":"226.1938","MEAN_MOTION_DOT":"-0.00053285","PERIOD":"95.436","ARG_OF_PERICENTER":"48.5298","MEAN_ANOMALY":"117.5852","TLE_LINE1":"1 52621U 22052Z   22256.16667824 -.00053285  00000-0 -33523-2 0  9997","RCS_SIZE":"LARGE","NORAD_CAT_ID":"52621","FILE":"3570572","APOAPSIS":"541.007","OBJECT_TYPE":"PAYLOAD","LAUNCH_DATE":"2022-05-14","BSTAR":"-0.00335230000000","PERIAPSIS":"538.322","SITE":"AFETR","ELEMENT_SET_NO":"999","SEMIMAJOR_AXIS":"6917.800","CENTER_NAME":"EARTH","REV_AT_EPOCH":"1910","TLE_LINE2":"2 52621  53.2166 226.1938 0001941  48.5298 117.5852 15.08866416 19108","REF_FRAME":"TEME","DECAY_DATE":null,"EPHEMERIS_TYPE":"0","OBJECT_ID":"2022-052Z"},{"EPOCH":"2022-09-12T22:00:00.999936","RA_OF_ASC_NODE":"242.3023","ARG_OF_PERICENTER":"78.4805","MEAN_ANOMALY":"346.4700","PERIOD":"95.440","MEAN_MOTION_DOT":"0.00044965","GP_ID":"212434722","MEAN_ELEMENT_THEORY":"SGP4","INCLINATION":"53.2167","MEAN_MOTION_DDOT":"0.0000000000000","TIME_SYSTEM":"UTC","OBJECT_NAME":"STARLINK-4008","COUNTRY_CODE":"US","CLASSIFICATION_TYPE":"U","ECCENTRICITY":"0.00014140","MEAN_MOTION":"15.08808446","REV_AT_EPOCH":"130","CENTER_NAME":"EARTH","SEMIMAJOR_AXIS":"6917.977","ELEMENT_SET_NO":"999","SITE":"AFETR","PERIAPSIS":"538.864","EPHEMERIS_TYPE":"0","OBJECT_ID":"2022-052AA","TLE_LINE2":"2 52622  53.2167 242.3023 0001414  78.4805 346.4700 15.08808446  1303","DECAY_DATE":null,"REF_FRAME":"TEME","NORAD_CAT_ID":"52622","FILE":"3570509","RCS_SIZE":"LARGE","TLE_LINE1":"1 52622U 22052AA  22255.91667824  .00044965  00000-0  28278-2 0  9994","OBJECT_TYPE":"PAYLOAD","LAUNCH_DATE":"2022-05-14","BSTAR":"0.00282780000000","APOAPSIS":"540.820"},{"TLE_LINE1":"1 52623U 22052AB  22255.91667824  .00031626  00000-0  19971-2 0  9995","RCS_SIZE":"LARGE","NORAD_CAT_ID":"52623","FILE":"3570509","APOAPSIS":"541.128","OBJECT_TYPE":"PAYLOAD","LAUNCH_DATE":"2022-05-14","BSTAR":"0.00199710000000","PERIAPSIS":"538.458","SITE":"AFETR","ELEMENT_SET_NO":"999","SEMIMAJOR_AXIS":"6917.928","REV_AT_EPOCH":"130","CENTER_NAME":"EARTH","TLE_LINE2":"2 52623  53.2163 227.3139 0001930  50.4920 216.9591 15.08824394  1301","REF_FRAME":"TEME","DECAY_DATE":null,"OBJECT_ID":"2022-052AB","EPHEMERIS_TYPE":"0","MEAN_MOTION_DDOT":"0.0000000000000","TIME_SYSTEM":"UTC","GP_ID":"212434211","INCLINATION":"53.2163","MEAN_ELEMENT_THEORY":"SGP4","CLASSIFICATION_TYPE":"U","MEAN_MOTION":"15.08824394","ECCENTRICITY":"0.00019300","OBJECT_NAME":"STARLINK-3986","COUNTRY_CODE":"US","EPOCH":"2022-09-12T22:00:00.999936","RA_OF_ASC_NODE":"227.3139","MEAN_MOTION_DOT":"0.00031626","PERIOD":"95.439","ARG_OF_PERICENTER":"50.4920","MEAN_ANOMALY":"216.9591"},{"NORAD_CAT_ID":"52624","FILE":"3570566","RCS_SIZE":"LARGE","TLE_LINE1":"1 52624U 22052AC  22256.16667824 -.00046685  00000-0 -29329-2 0  9995","BSTAR":"-0.00293290000000","LAUNCH_DATE":"2022-05-14","OBJECT_TYPE":"PAYLOAD","APOAPSIS":"540.892","CENTER_NAME":"EARTH","REV_AT_EPOCH":"1910","SEMIMAJOR_AXIS":"6917.829","ELEMENT_SET_NO":"999","SITE":"AFETR","PERIAPSIS":"538.496","EPHEMERIS_TYPE":"0","OBJECT_ID":"2022-052AC","REF_FRAME":"TEME","DECAY_DATE":null,"TLE_LINE2":"2 52624  53.2170 226.1917 0001732  56.1928  69.9318 15.08856915 19106","MEAN_ELEMENT_THEORY":"SGP4","INCLINATION":"53.2170","GP_ID":"212435333","TIME_SYSTEM":"UTC","MEAN_MOTION_DDOT":"0.0000000000000","COUNTRY_CODE":"US","OBJECT_NAME":"STARLINK-4009","ECCENTRICITY":"0.00017320","MEAN_MOTION":"15.08856915","CLASSIFICATION_TYPE":"U","RA_OF_ASC_NODE":"226.1917","EPOCH":"2022-09-13T04:00:00.999936","MEAN_ANOMALY":"69.9318","ARG_OF_PERICENTER":"56.1928","PERIOD":"95.436","MEAN_MOTION_DOT":"-0.00046685"},{"SITE":"AFETR","ELEMENT_SET_NO":"999","PERIAPSIS":"538.684","CENTER_NAME":"EARTH","REV_AT_EPOCH":"1910","SEMIMAJOR_AXIS":"6917.885","REF_FRAME":"TEME","DECAY_DATE":null,"TLE_LINE2":"2 52625  53.2170 226.1735 0001541  66.5701 139.5484 15.08838563 19104","EPHEMERIS_TYPE":"0","OBJECT_ID":"2022-052AD","RCS_SIZE":"LARGE","TLE_LINE1":"1 52625U 22052AD  22256.16667824 -.00008775  00000-0 -53390-3 0  9990","FILE":"3570567","NORAD_CAT_ID":"52625","APOAPSIS":"540.816","BSTAR":"-0.00053390000000","OBJECT_TYPE":"PAYLOAD","LAUNCH_DATE":"2022-05-14","RA_OF_ASC_NODE":"226.1735","EPOCH":"2022-09-13T04:00:00.999936","PERIOD":"95.438","MEAN_MOTION_DOT":"-0.00008775","MEAN_ANOMALY":"139.5484","ARG_OF_PERICENTER":"66.5701","TIME_SYSTEM":"UTC","MEAN_MOTION_DDOT":"0.0000000000000","INCLINATION":"53.2170","MEAN_ELEMENT_THEORY":"SGP4","GP_ID":"212435117","ECCENTRICITY":"0.00015410","MEAN_MOTION":"15.08838563","CLASSIFICATION_TYPE":"U","COUNTRY_CODE":"US","OBJECT_NAME":"STARLINK-3988"},{"OBJECT_NAME":"STARLINK-3990","COUNTRY_CODE":"US","CLASSIFICATION_TYPE":"U","ECCENTRICITY":"0.00016330","MEAN_MOTION":"15.08850196","GP_ID":"212434501","INCLINATION":"53.2164","MEAN_ELEMENT_THEORY":"SGP4","MEAN_MOTION_DDOT":"0.0000000000000","TIME_SYSTEM":"UTC","ARG_OF_PERICENTER":"59.1731","MEAN_ANOMALY":"168.2682","PERIOD":"95.437","MEAN_MOTION_DOT":"-0.00014507","EPOCH":"2022-09-12T22:00:00.999936","RA_OF_ASC_NODE":"227.3128","LAUNCH_DATE":"2022-05-14","OBJECT_TYPE":"PAYLOAD","BSTAR":"-0.00089497000000","APOAPSIS":"540.844","NORAD_CAT_ID":"52626","FILE":"3570509","RCS_SIZE":"LARGE","TLE_LINE1":"1 52626U 22052AE  22255.91667824 -.00014507  00000-0 -89497-3 0  9990","OBJECT_ID":"2022-052AE","EPHEMERIS_TYPE":"0","TLE_LINE2":"2 52626  53.2164 227.3128 0001633  59.1731 168.2682 15.08850196  1308","DECAY_DATE":null,"REF_FRAME":"TEME","REV_AT_EPOCH":"130","CENTER_NAME":"EARTH","SEMIMAJOR_AXIS":"6917.849","ELEMENT_SET_NO":"999","SITE":"AFETR","PERIAPSIS":"538.585"}];
